STARLINK-5701           
1 55487U 23015AQ  26164.66858218 -.00023612  00000+0 -84856-3 0  9992
2 55487  43.0090 157.7216 0001968 301.3654  58.7005 15.27681728185277
STARLINK-5706           
1 55488U 23015AR  26164.66604825  .00000298  00000+0  20360-4 0  9990
2 55488  42.9966 157.6935 0003320 277.0935  82.9539 15.27584629185273
STARLINK-5371           
1 55489U 23015AS  26164.67248701 -.00000356  00000+0 -34324-5 0  9992
2 55489  43.0028 157.7547 0000994 264.2424  95.8314 15.27574090185275
STARLINK-5373           
1 55490U 23015AT  26164.25445990  .00000507  00000+0  27968-4 0  9998
2 55490  43.0031 159.7666 0001528 272.2038  87.8638 15.27580131185216
STARLINK-5364           
1 55491U 23015AU  26164.20932019  .00001913  00000+0  79012-4 0  9996
2 55491  43.0035 141.9589 0001368 271.2182  88.8513 15.27579744185412
STARLINK-5013           
1 55492U 23015AV  26164.67119525  .00000008  00000+0  98256-5 0  9993
2 55492  42.9997 157.7276 0001133 269.1891  90.8831 15.27576598185273
STARLINK-5362           
1 55493U 23015AW  26164.25960494 -.00000203  00000+0  21473-5 0  9992
2 55493  43.0024 159.8121 0001492 269.4605  90.6076 15.27577150185211
STARLINK-5344           
1 55494U 23015AX  26164.67376603  .00000689  00000+0  34560-4 0  9999
2 55494  42.9992 157.7578 0001355 269.4742  90.5954 15.27576257185274
STARLINK-5100           
1 55495U 23015AY  26164.21574175  .00000958  00000+0  44352-4 0  9993
2 55495  43.0050 142.0220 0001781 272.6487  87.4161 15.27581384185416
STARLINK-5363           
1 55497U 23015BA  26164.67762437  .00001911  00000+0  78937-4 0  9991
2 55497  43.0018 157.7772 0000853 287.9972  72.0786 15.27588127185273
STARLINK-5365           
1 55498U 23015BB  26164.68790381 -.00000954  00000+0 -25162-4 0  9992
2 55498  43.0028 157.8552 0000665 290.3980  69.6800 15.27572449185279
STARLINK-5366           
1 55499U 23015BC  26164.70700005  .00001615  00000+0  68207-4 0  9990
2 55499  43.0137 157.1488 0003302 285.8834  74.1654 15.27595642186033
STARLINK-5141           
1 55500U 23015BD  26164.68147831 -.00000014  00000+0  90252-5 0  9991
2 55500  43.0020 157.8124 0000715 256.9761 103.1011 15.27574037185274
STARLINK-5367           
1 55501U 23015BE  26164.69560531  .00000568  00000+0  30149-4 0  9990
2 55501  43.0035 157.9049 0001181 282.3856  77.6864 15.27581215185271
STARLINK-5749           
1 55569U 23020A   26164.76757047 -.00000060  00000+0  73528-5 0  9995
2 55569  42.9993 186.2763 0001059 272.9861  87.0869 15.27575055184633
STARLINK-5737           
1 55570U 23020B   26164.75393115  .00002243  00000+0  91004-4 0  9990
2 55570  43.0025 182.7670 0001519 283.8074  76.2609 15.27589086183606
STARLINK-5739           
1 55571U 23020C   26164.74700948 -.00000222  00000+0  14570-5 0  9996
2 55571  42.9958 186.1224 0001216 285.6214  74.4503 15.27579381183568
STARLINK-5732           
1 55572U 23020D   26164.35212490  .00000197  00000+0  16684-4 0  9991
2 55572  42.9997 188.3185 0000996 267.7804  92.2934 15.27578251183507
STARLINK-5738           
1 55573U 23020E   26164.34826930  .00000412  00000+0  24487-4 0  9991
2 55573  43.0040 188.2893 0001312 275.2859  84.7843 15.27579497183509
STARLINK-5747           
1 55574U 23020F   26164.77528073 -.00000034  00000+0  82873-5 0  9991
2 55574  43.0025 186.3343 0001674 294.4792  65.5885 15.27576805183561
STARLINK-5745           
1 55575U 23020G   26164.75343750 -.00000999  00000+0 -26797-4 0  9990
2 55575  43.0015 186.1658 0001246 274.2057  85.8652 15.27575993183567
STARLINK-5751           
1 55576U 23020H   26164.69805458  .00000590  00000+0  30977-4 0  9992
2 55576  43.0048 157.2085 0001365 279.6539  80.4158 15.27580727183892
STARLINK-5752           
1 55577U 23020J   26164.76548623 -.00000354  00000+0 -33596-5 0  9990
2 55577  43.0000 182.7675 0000900 302.1681  57.9083 15.27573216183603
STARLINK-5754           
1 55579U 23020L   26164.74493486 -.00000243  00000+0  67669-6 0  9991
2 55579  43.0006 182.6932 0001148 270.1308  89.9412 15.27575339183600
STARLINK-5757           
1 55580U 23020M   26164.70833547  .00000217  00000+0  17408-4 0  9999
2 55580  42.9988 157.2838 0001121 253.0035 107.0694 15.27579263183895
STARLINK-5753           
1 55581U 23020N   26164.36062496  .00000273  00000+0  19456-4 0  9996
2 55581  43.0053 191.7895 0001012 267.4167  92.6568 15.27578780183466
STARLINK-5741           
1 55582U 23020P   26164.70397929 -.00000330  00000+0 -24524-5 0  9996
2 55582  43.0021 171.9807 0001528 273.7643  86.3034 15.27576808183722
STARLINK-5742           
1 55583U 23020Q   26164.32948463  .00000271  00000+0  19366-4 0  9999
2 55583  43.0006 184.7388 0001325 268.1273  91.9427 15.27579364183542
STARLINK-5736           
1 55584U 23020R   26164.78090873 -.00000079  00000+0  66616-5 0  9991
2 55584  43.0031 182.9658 0001705 275.4214  84.6444 15.27584908183604
STARLINK-5769           
1 55585U 23020S   26164.72840501 -.00001164  00000+0 -32791-4 0  9990
2 55585  43.0035 172.1699 0000359 324.3649  35.7179 15.27570296183725
