OBJECT_NAME,OBJECT_ID,EPOCH,MEAN_MOTION,ECCENTRICITY,INCLINATION,RA_OF_ASC_NODE,ARG_OF_PERICENTER,MEAN_ANOMALY,EPHEMERIS_TYPE,CLASSIFICATION_TYPE,NORAD_CAT_ID,ELEMENT_SET_NO,REV_AT_EPOCH,BSTAR,MEAN_MOTION_DOT,MEAN_MOTION_DDOT
STARLINK-5701,2023-015AQ,2026-06-13T16:02:45.500352,15.27681728,.0001968,43.0090,157.7216,301.3654,58.7005,0,U,55487,999,18527,-.84856E-3,-.23612E-3,0
STARLINK-5706,2023-015AR,2026-06-13T15:59:06.568800,15.27584629,.000332,42.9966,157.6935,277.0935,82.9539,0,U,55488,999,18527,.2036E-4,.298E-5,0
STARLINK-5371,2023-015AS,2026-06-13T16:08:22.877664,15.27574090,.0000994,43.0028,157.7547,264.2424,95.8314,0,U,55489,999,18527,-.34324E-5,-.356E-5,0
STARLINK-5373,2023-015AT,2026-06-13T06:06:25.335360,15.27580131,.0001528,43.0031,159.7666,272.2038,87.8638,0,U,55490,999,18521,.27968E-4,.507E-5,0
STARLINK-5364,2023-015AU,2026-06-13T05:01:25.264416,15.27579744,.00013687,43.0035,141.9589,271.2182,88.8513,0,U,55491,999,18541,.79012088E-4,.1913E-4,0
STARLINK-5013,2023-015AV,2026-06-13T16:06:31.269600,15.27576598,.0001133,42.9997,157.7276,269.1891,90.8831,0,U,55492,999,18527,.98256E-5,.8E-7,0
STARLINK-5362,2023-015AW,2026-06-13T06:13:49.866816,15.27577150,.0001492,43.0024,159.8121,269.4605,90.6076,0,U,55493,999,18521,.21473E-5,-.203E-5,0
STARLINK-5344,2023-015AX,2026-06-13T16:10:13.384992,15.27576257,.0001355,42.9992,157.7578,269.4742,90.5954,0,U,55494,999,18527,.3456E-4,.689E-5,0
STARLINK-5100,2023-015AY,2026-06-13T05:10:40.087200,15.27581384,.00017813,43.0050,142.0220,272.6487,87.4161,0,U,55495,999,18541,.44352136E-4,.958E-5,0
STARLINK-5363,2023-015BA,2026-06-13T16:15:46.745568,15.27588127,.0000853,43.0018,157.7772,287.9972,72.0786,0,U,55497,999,18527,.78937E-4,.1911E-4,0
STARLINK-5365,2023-015BB,2026-06-13T16:30:34.889184,15.27572449,.0000665,43.0028,157.8552,290.3980,69.6800,0,U,55498,999,18527,-.25162E-4,-.954E-5,0
STARLINK-5366,2023-015BC,2026-06-13T16:58:04.804320,15.27595642,.0003302,43.0137,157.1488,285.8834,74.1654,0,U,55499,999,18603,.68207E-4,.1615E-4,0
STARLINK-5141,2023-015BD,2026-06-13T16:21:19.725984,15.27574037,.0000715,43.0020,157.8124,256.9761,103.1011,0,U,55500,999,18527,.90252E-5,-.14E-6,0
STARLINK-5367,2023-015BE,2026-06-13T16:41:40.298784,15.27581215,.0001181,43.0035,157.9049,282.3856,77.6864,0,U,55501,999,18527,.30149E-4,.568E-5,0
STARLINK-5749,2023-020A,2026-06-13T18:25:18.088608,15.27575055,.0001059,42.9993,186.2763,272.9861,87.0869,0,U,55569,999,18463,.73528E-5,-.6E-6,0
STARLINK-5737,2023-020B,2026-06-13T18:05:39.651360,15.27589086,.0001519,43.0025,182.7670,283.8074,76.2609,0,U,55570,999,18360,.91004E-4,.2243E-4,0
STARLINK-5739,2023-020C,2026-06-13T17:55:41.619072,15.27579381,.0001216,42.9958,186.1224,285.6214,74.4503,0,U,55571,999,18356,.1457E-5,-.222E-5,0
STARLINK-5732,2023-020D,2026-06-13T08:27:03.591360,15.27578251,.00009968,42.9997,188.3185,267.7804,92.2934,0,U,55572,999,18350,.16684336E-4,.197E-5,0
STARLINK-5738,2023-020E,2026-06-13T08:21:30.467520,15.27579497,.00013124,43.0040,188.2893,275.2859,84.7843,0,U,55573,999,18350,.24487259E-4,.412E-5,0
STARLINK-5747,2023-020F,2026-06-13T18:36:24.255072,15.27576805,.0001674,43.0025,186.3343,294.4792,65.5885,0,U,55574,999,18356,.82873E-5,-.34E-6,0
STARLINK-5745,2023-020G,2026-06-13T18:04:57.000000,15.27575993,.0001246,43.0015,186.1658,274.2057,85.8652,0,U,55575,999,18356,-.26797E-4,-.999E-5,0
STARLINK-5751,2023-020H,2026-06-13T16:45:11.915712,15.27580727,.0001365,43.0048,157.2085,279.6539,80.4158,0,U,55576,999,18389,.30977E-4,.59E-5,0
STARLINK-5752,2023-020J,2026-06-13T18:22:18.010272,15.27573216,.00009,43.0000,182.7675,302.1681,57.9083,0,U,55577,999,18360,-.33596E-5,-.354E-5,0
STARLINK-5754,2023-020L,2026-06-13T17:52:42.371904,15.27575339,.0001148,43.0006,182.6932,270.1308,89.9412,0,U,55579,999,18360,.67669E-6,-.243E-5,0
STARLINK-5757,2023-020M,2026-06-13T17:00:00.184608,15.27579263,.0001121,42.9988,157.2838,253.0035,107.0694,0,U,55580,999,18389,.17408E-4,.217E-5,0
STARLINK-5753,2023-020N,2026-06-13T08:39:17.996544,15.27578780,.00010126,43.0053,191.7895,267.4167,92.6568,0,U,55581,999,18346,.19456186E-4,.273E-5,0
STARLINK-5741,2023-020P,2026-06-13T16:53:43.810656,15.27576808,.0001528,43.0021,171.9807,273.7643,86.3034,0,U,55582,999,18372,-.24524E-5,-.33E-5,0
STARLINK-5742,2023-020Q,2026-06-13T07:54:27.472032,15.27579364,.00013256,43.0006,184.7388,268.1273,91.9427,0,U,55583,999,18354,.19365614E-4,.271E-5,0
STARLINK-5736,2023-020R,2026-06-13T18:44:30.514272,15.27584908,.0001705,43.0031,182.9658,275.4214,84.6444,0,U,55584,999,18360,.66616E-5,-.79E-6,0
STARLINK-5769,2023-020S,2026-06-13T17:28:54.192864,15.27570296,.0000359,43.0035,172.1699,324.3649,35.7179,0,U,55585,999,18372,-.32791E-4,-.1164E-4,0
